[{"OBJECT_NAME":"HONGYUN 1","OBJECT_ID":"2018-108A","EPOCH":"2026-03-10T00:13:12.376992","MEAN_MOTION":13.50804473,"ECCENTRICITY":0.00109018,"INCLINATION":99.7768,"RA_OF_ASC_NODE":92.5913,"ARG_OF_PERICENTER":263.9195,"MEAN_ANOMALY":96.0698,"EPHEMERIS_TYPE":0,"CLASSIFICATION_TYPE":"U","NORAD_CAT_ID":43871,"ELEMENT_SET_NO":999,"REV_AT_EPOCH":35569,"BSTAR":-0.00022113401,"MEAN_MOTION_DOT":-1.87e-6,"MEAN_MOTION_DDOT":0},{"OBJECT_NAME":"OBJECT E","OBJECT_ID":"2022-023E","EPOCH":"2026-03-09T23:07:18.009696","MEAN_MOTION":13.56268386,"ECCENTRICITY":0.01511306,"INCLINATION":63.4608,"RA_OF_ASC_NODE":212.7399,"ARG_OF_PERICENTER":348.7592,"MEAN_ANOMALY":11.0076,"EPHEMERIS_TYPE":0,"CLASSIFICATION_TYPE":"U","NORAD_CAT_ID":51950,"ELEMENT_SET_NO":999,"REV_AT_EPOCH":20857,"BSTAR":0.00011607077,"MEAN_MOTION_DOT":-5.0e-8,"MEAN_MOTION_DDOT":0}]
